IRIDIUM 36 [-]          
1 24967U 97056C   24114.73213920  .00001272  00000+0  42500-3 0  9999
2 24967  86.3995 349.1602 0002039  87.4424 272.7006 14.36745293391975
IRIDIUM 39 [-]          
1 25042U 97069D   24114.82834990  .00002022  00000+0  54004-3 0  9990
2 25042  86.3968  30.8053 0015942 265.9246  94.0136 14.47869911388258
IRIDIUM 38 [-]          
1 25043U 97069E   24114.89607438  .00001652  00000+0  54880-3 0  9993
2 25043  86.3985  49.4635 0003675  63.8434 296.3141 14.37195620385971
IRIDIUM 42 [-]          
1 25077U 97077A   24114.88471896  .00001556  00000+0  53444-3 0  9993
2 25077  86.3978  55.1243 0002791  77.9940 282.1570 14.35501795381028
IRIDIUM 44 [-]          
1 25078U 97077B   24114.85070606  .00001567  00000+0  49835-3 0  9996
2 25078  86.3996  38.1912 0002086  36.3924 323.7416 14.39331661383368
IRIDIUM 45 [-]          
1 25104U 97082A   24114.87755995  .00025265  00000+0  14395-2 0  9998
2 25104  86.3740 247.7076 0165020  77.2187 284.7430 15.01761268388702
IRIDIUM 24 [-]          
1 25105U 97082B   24114.93654041  .00001699  00000+0  52128-3 0  9998
2 25105  86.3887 257.8307 0012348  31.8957 328.2988 14.41098870383060
IRIDIUM 51 [-]          
1 25262U 98018A   24114.91718761  .00022940  00000+0  10964-2 0  9993
2 25262  86.3959 257.6666 0149998  23.3182 337.4764 15.09388605383223
